KOMPSAT-7               
1 66820U 25279A   26068.87103100  .00004022  00000+0  31599-3 0  9996
2 66820  97.6738  18.4558 0009895 343.5135  16.5766 15.01421798 14723
STARLINK-36270          
1 67200U 25304J   26068.67682426 -.00016169  00000+0 -13227-2 0  9993
2 67200  70.0031 174.4617 0002906 259.1130 100.9703 14.99128742 13883
